0 NIMBUS 2 DEB
1 37892U 66040AX  13281.44323154  .00001104  00000-0  22576-2 0  2427
2 37892 100.5175 358.9583 0046432 030.4756 031.0049 13.35352634741032
0 NIMBUS 2 DEB
1 37892U 66040AX  13284.43997951  .00001206  00000-0  24569-2 0  2439
2 37892 100.5190 002.0380 0046253 022.5165 038.1413 13.35360943741437
0 NIMBUS 2 DEB
1 37892U 66040AX  13286.46390170  .00001247  00000-0  25384-2 0  2446
2 37892 100.5188 004.1195 0046171 017.3083 048.2176 13.35367445741703
0 NIMBUS 2 DEB
1 37892U 66040AX  13288.02368124  .00001248  00000-0  25384-2 0  2456
2 37892 100.5149 005.7164 0047573 017.0567 343.1723 13.35370597741914
0 NIMBUS 2 DEB
1 37892U 66040AX  13289.15337457  .00001453  00000-0  29408-2 0  2466
2 37892 100.5179 006.8861 0046056 010.2388 018.1592 13.35375597742069
0 NIMBUS 2 DEB
1 37892U 66040AX  13291.18199497  .00001447  00000-0  29304-2 0  2471
2 37892 100.5174 008.9723 0046032 004.8532 051.0929 13.35382132742331
0 NIMBUS 2 DEB
1 37892U 66040AX  13294.48102209  .00001581  00000-0  31922-2 0  2481
2 37892 100.5171 012.3648 0046224 356.2194 071.6963 13.35393759742775
